[{"OBJECT_NAME":"STARLINK-30883","OBJECT_ID":"2023-171Y","EPOCH":"2026-03-09T22:00:01.999584","MEAN_MOTION":15.26707951,"ECCENTRICITY":0.00011668,"INCLINATION":43.0021,"RA_OF_ASC_NODE":283.6097,"ARG_OF_PERICENTER":279.8259,"MEAN_ANOMALY":59.7575,"EPHEMERIS_TYPE":0,"CLASSIFICATION_TYPE":"U","NORAD_CAT_ID":58252,"ELEMENT_SET_NO":999,"REV_AT_EPOCH":578,"BSTAR":0.00036522307,"MEAN_MOTION_DOT":9.54e-5,"MEAN_MOTION_DDOT":0},{"OBJECT_NAME":"FLOCK 4G-10","OBJECT_ID":"2025-009BP","EPOCH":"2026-03-09T16:59:55.292640","MEAN_MOTION":15.27155944,"ECCENTRICITY":0.00034694,"INCLINATION":97.3967,"RA_OF_ASC_NODE":150.5883,"ARG_OF_PERICENTER":341.4844,"MEAN_ANOMALY":18.6269,"EPHEMERIS_TYPE":0,"CLASSIFICATION_TYPE":"U","NORAD_CAT_ID":62670,"ELEMENT_SET_NO":999,"REV_AT_EPOCH":12134,"BSTAR":0.00052624432,"MEAN_MOTION_DOT":0.00013952,"MEAN_MOTION_DDOT":0}]
